{"type": "FeatureCollection", "features": [ {"type": "Feature", "properties": {"norad_id": 34976, "name": "COSMOS 2251 DEB", "group": "cosmos-2251-debris", "lat": -34.843562524897564, "lon": -55.84521936736126, "alt_km": 620.712527346669, "timestamp": "2025-12-07T22:37:43.477749+00:00", "meta": {"OBJECT_NAME": "COSMOS 2251 DEB", "OBJECT_ID": "1993-036AFF", "EPOCH": "2025-12-07T04:58:26.927040", "MEAN_MOTION": 14.76379192, "ECCENTRICITY": 0.00478535, "INCLINATION": 74.0577, "RA_OF_ASC_NODE": 317.071, "ARG_OF_PERICENTER": 4.9947, "MEAN_ANOMALY": 10.8679, "EPHEMERIS_TYPE": 0, "CLASSIFICATION_TYPE": "U", "NORAD_CAT_ID": 34976, "ELEMENT_SET_NO": 999, "REV_AT_EPOCH": 88192, "BSTAR": 0.0023287343, "MEAN_MOTION_DOT": 0.00016492, "MEAN_MOTION_DDOT": 0}, "tle": {"line1": "1 34976U 93036AFF 25341.20725610  .00016492  00000+0  23287-2 0  9993", "line2": "2 34976  74.0577 317.0710 0047853   4.9947  10.8679 14.76379192881928"}}, "geometry": {"type": "Point", "coordinates": [-55.84521936736126, -34.843562524897564]}}, {"type": "Feature", "properties": {"norad_id": 34979, "name": "COSMOS 2251 DEB", "group": "cosmos-2251-debris", "lat": -34.615005338153466, "lon": -94.69244806138866, "alt_km": 608.3850497273388, "timestamp": "2025-12-07T22:37:43.477762+00:00", "meta": {"OBJECT_NAME": "COSMOS 2251 DEB", "OBJECT_ID": "1993-036AFJ", "EPOCH": "2025-12-06T19:11:46.972608", "MEAN_MOTION": 14.79164969, "ECCENTRICITY": 0.00491491, "INCLINATION": 74.0406, "RA_OF_ASC_NODE": 278.9469, "ARG_OF_PERICENTER": 358.1213, "MEAN_ANOMALY": 1.977, "EPHEMERIS_TYPE": 0, "CLASSIFICATION_TYPE": "U", "NORAD_CAT_ID": 34979, "ELEMENT_SET_NO": 999, "REV_AT_EPOCH": 88132, "BSTAR": 0.0021873497, "MEAN_MOTION_DOT": 0.00016564, "MEAN_MOTION_DDOT": 0}, "tle": {"line1": "1 34979U 93036AFJ 25340.79984922  .00016564  00000+0  21873-2 0  9991", "line2": "2 34979  74.0406 278.9469 0049149 358.1213   1.9770 14.79164969881322"}}, "geometry": {"type": "Point", "coordinates": [-94.69244806138866, -34.615005338153466]}}, {"type": "Feature", "properties": {"norad_id": 34990, "name": "COSMOS 2251 DEB", "group": "cosmos-2251-debris", "lat": -14.407449546628358, "lon": -103.98760829372031, "alt_km": 744.258678316045, "timestamp": "2025-12-07T22:37:43.477772+00:00", "meta": {"OBJECT_NAME": "COSMOS 2251 DEB", "OBJECT_ID": "1993-036AFN", "EPOCH": "2025-12-07T01:03:28.213920", "MEAN_MOTION": 14.42350123, "ECCENTRICITY": 0.00162731, "INCLINATION": 74.0455, "RA_OF_ASC_NODE": 261.8923, "ARG_OF_PERICENTER": 325.0179, "MEAN_ANOMALY": 34.9906, "EPHEMERIS_TYPE": 0, "CLASSIFICATION_TYPE": "U", "NORAD_CAT_ID": 34990, "ELEMENT_SET_NO": 999, "REV_AT_EPOCH": 87264, "BSTAR": 0.00072596004, "MEAN_MOTION_DOT": 2.377e-05, "MEAN_MOTION_DDOT": 0}, "tle": {"line1": "1 34990U 93036AFN 25341.04407655  .00002377  00000+0  72596-3 0  9992", "line2": "2 34990  74.0455 261.8923 0016273 325.0179  34.9906 14.42350123872642"}}, "geometry": {"type": "Point", "coordinates": [-103.98760829372031, -14.407449546628358]}}, {"type": "Feature", "properties": {"norad_id": 34997, "name": "COSMOS 2251 DEB", "group": "cosmos-2251-debris", "lat": 72.60180155677132, "lon": 72.86306625099574, "alt_km": 798.9555188149661, "timestamp": "2025-12-07T22:37:43.477783+00:00", "meta": {"OBJECT_NAME": "COSMOS 2251 DEB", "OBJECT_ID": "1993-036AFV", "EPOCH": "2025-12-07T05:34:12.850752", "MEAN_MOTION": 14.45441909, "ECCENTRICITY": 0.00980928, "INCLINATION": 73.8797, "RA_OF_ASC_NODE": 321.5637, "ARG_OF_PERICENTER": 297.5324, "MEAN_ANOMALY": 61.5891, "EPHEMERIS_TYPE": 0, "CLASSIFICATION_TYPE": "U", "NORAD_CAT_ID": 34997, "ELEMENT_SET_NO": 999, "REV_AT_EPOCH": 70667, "BSTAR": 0.0028258875, "MEAN_MOTION_DOT": 0.00010545, "MEAN_MOTION_DDOT": 0}, "tle": {"line1": "1 34997U 93036AFV 25341.23209318  .00010545  00000+0  28259-2 0  9998", "line2": "2 34997  73.8797 321.5637 0098092 297.5324  61.5891 14.45441909706679"}}, "geometry": {"type": "Point", "coordinates": [72.86306625099574, 72.60180155677132]}}, {"type": "Feature", "properties": {"norad_id": 34998, "name": "COSMOS 2251 DEB", "group": "cosmos-2251-debris", "lat": -73.98923083255372, "lon": 81.08853514239149, "alt_km": 724.4027128926964, "timestamp": "2025-12-07T22:37:43.477793+00:00", "meta": {"OBJECT_NAME": "COSMOS 2251 DEB", "OBJECT_ID": "1993-036AFW", "EPOCH": "2025-12-06T14:10:19.581024", "MEAN_MOTION": 14.49241816, "ECCENTRICITY": 0.00209325, "INCLINATION": 74.0093, "RA_OF_ASC_NODE": 171.5347, "ARG_OF_PERICENTER": 317.8049, "MEAN_ANOMALY": 100.156, "EPHEMERIS_TYPE": 0, "CLASSIFICATION_TYPE": "U", "NORAD_CAT_ID": 34998, "ELEMENT_SET_NO": 999, "REV_AT_EPOCH": 87331, "BSTAR": 0.00096729331, "MEAN_MOTION_DOT": 3.671e-05, "MEAN_MOTION_DDOT": 0}, "tle": {"line1": "1 34998U 93036AFW 25340.59050441  .00003671  00000+0  96729-3 0  9998", "line2": "2 34998  74.0093 171.5347 0020932 317.8049 100.1560 14.49241816873319"}}, "geometry": {"type": "Point", "coordinates": [81.08853514239149, -73.98923083255372]}}, {"type": "Feature", "properties": {"norad_id": 35000, "name": "COSMOS 2251 DEB", "group": "cosmos-2251-debris", "lat": 16.09137489113, "lon": -146.2530782909972, "alt_km": 341.46773522659805, "timestamp": "2025-12-07T22:37:43.477804+00:00", "meta": {"OBJECT_NAME": "COSMOS 2251 DEB", "OBJECT_ID": "1993-036AFY", "EPOCH": "2025-12-07T01:14:56.354496", "MEAN_MOTION": 15.76392839, "ECCENTRICITY": 0.00108197, "INCLINATION": 73.9998, "RA_OF_ASC_NODE": 211.0382, "ARG_OF_PERICENTER": 177.6296, "MEAN_ANOMALY": 182.4984, "EPHEMERIS_TYPE": 0, "CLASSIFICATION_TYPE": "U", "NORAD_CAT_ID": 35000, "ELEMENT_SET_NO": 999, "REV_AT_EPOCH": 88425, "BSTAR": 0.0077836356, "MEAN_MOTION_DOT": 0.01383659, "MEAN_MOTION_DDOT": 0}, "tle": {"line1": "1 35000U 93036AFY 25341.05204114  .01383659  00000+0  77836-2 0  9998", "line2": "2 35000  73.9998 211.0382 0010819 177.6296 182.4984 15.76392839884255"}}, "geometry": {"type": "Point", "coordinates": [-146.2530782909972, 16.09137489113]}}, {"type": "Feature", "properties": {"norad_id": 35012, "name": "COSMOS 2251 DEB", "group": "cosmos-2251-debris", "lat": -48.31348799083484, "lon": 101.91862176181584, "alt_km": 707.0932286334355, "timestamp": "2025-12-07T22:37:43.477815+00:00", "meta": {"OBJECT_NAME": "COSMOS 2251 DEB", "OBJECT_ID": "1993-036AFZ", "EPOCH": "2025-12-05T16:03:05.006880", "MEAN_MOTION": 14.45534049, "ECCENTRICITY": 0.0081644, "INCLINATION": 74.0192, "RA_OF_ASC_NODE": 124.9327, "ARG_OF_PERICENTER": 266.5684, "MEAN_ANOMALY": 92.6133, "EPHEMERIS_TYPE": 0, "CLASSIFICATION_TYPE": "U", "NORAD_CAT_ID": 35012, "ELEMENT_SET_NO": 999, "REV_AT_EPOCH": 87459, "BSTAR": 0.00031143888, "MEAN_MOTION_DOT": 1.115e-05, "MEAN_MOTION_DDOT": 0}, "tle": {"line1": "1 35012U 93036AFZ 25339.66880795  .00001115  00000+0  31144-3 0  9996", "line2": "2 35012  74.0192 124.9327 0081644 266.5684  92.6133 14.45534049874590"}}, "geometry": {"type": "Point", "coordinates": [101.91862176181584, -48.31348799083484]}}, {"type": "Feature", "properties": {"norad_id": 35014, "name": "COSMOS 2251 DEB", "group": "cosmos-2251-debris", "lat": -73.23886135975624, "lon": -54.75111162552422, "alt_km": 647.6844102534405, "timestamp": "2025-12-07T22:37:43.477825+00:00", "meta": {"OBJECT_NAME": "COSMOS 2251 DEB", "OBJECT_ID": "1993-036AGB", "EPOCH": "2025-12-06T22:38:32.273376", "MEAN_MOTION": 14.75000144, "ECCENTRICITY": 0.00077244, "INCLINATION": 73.9998, "RA_OF_ASC_NODE": 54.8925, "ARG_OF_PERICENTER": 229.6531, "MEAN_ANOMALY": 130.3968, "EPHEMERIS_TYPE": 0, "CLASSIFICATION_TYPE": "U", "NORAD_CAT_ID": 35014, "ELEMENT_SET_NO": 999, "REV_AT_EPOCH": 71251, "BSTAR": 0.0025951547, "MEAN_MOTION_DOT": 0.00017481, "MEAN_MOTION_DDOT": 0}, "tle": {"line1": "1 35014U 93036AGB 25340.94342909  .00017481  00000+0  25952-2 0  9993", "line2": "2 35014  73.9998  54.8925 0007724 229.6531 130.3968 14.75000144712513"}}, "geometry": {"type": "Point", "coordinates": [-54.75111162552422, -73.23886135975624]}}, {"type": "Feature", "properties": {"norad_id": 35015, "name": "COSMOS 2251 DEB", "group": "cosmos-2251-debris", "lat": 57.096467154084024, "lon": -89.83943524609981, "alt_km": 698.169977686428, "timestamp": "2025-12-07T22:37:43.477836+00:00", "meta": {"OBJECT_NAME": "COSMOS 2251 DEB", "OBJECT_ID": "1993-036AGC", "EPOCH": "2025-12-04T12:10:57.092736", "MEAN_MOTION": 14.4680235, "ECCENTRICITY": 0.0074187, "INCLINATION": 73.9485, "RA_OF_ASC_NODE": 250.189, "ARG_OF_PERICENTER": 121.2428, "MEAN_ANOMALY": 54.7861, "EPHEMERIS_TYPE": 0, "CLASSIFICATION_TYPE": "U", "NORAD_CAT_ID": 35015, "ELEMENT_SET_NO": 999, "REV_AT_EPOCH": 65321, "BSTAR": 0.0019089, "MEAN_MOTION_DOT": 7.135e-05, "MEAN_MOTION_DDOT": 0}, "tle": {"line1": "1 35015U 93036AGC 25338.50760524  .00007135  00000+0  19089-2 0  9999", "line2": "2 35015  73.9485 250.1890 0074187 121.2428  54.7861 14.46802350653215"}}, "geometry": {"type": "Point", "coordinates": [-89.83943524609981, 57.096467154084024]}}, {"type": "Feature", "properties": {"norad_id": 35016, "name": "COSMOS 2251 DEB", "group": "cosmos-2251-debris", "lat": -65.86786150718171, "lon": -96.77242289293379, "alt_km": 748.9318415710777, "timestamp": "2025-12-07T22:37:43.477846+00:00", "meta": {"OBJECT_NAME": "COSMOS 2251 DEB", "OBJECT_ID": "1993-036AGD", "EPOCH": "2025-12-05T16:34:58.698624", "MEAN_MOTION": 14.35037232, "ECCENTRICITY": 0.01148794, "INCLINATION": 73.9297, "RA_OF_ASC_NODE": 307.4305, "ARG_OF_PERICENTER": 225.8736, "MEAN_ANOMALY": 312.1431, "EPHEMERIS_TYPE": 0, "CLASSIFICATION_TYPE": "U", "NORAD_CAT_ID": 35016, "ELEMENT_SET_NO": 999, "REV_AT_EPOCH": 86681, "BSTAR": 0.00066879232, "MEAN_MOTION_DOT": 2.026e-05, "MEAN_MOTION_DDOT": 0}, "tle": {"line1": "1 35016U 93036AGD 25339.69095716  .00002026  00000+0  66879-3 0  9999", "line2": "2 35016  73.9297 307.4305 0114879 225.8736 312.1431 14.35037232866813"}}, "geometry": {"type": "Point", "coordinates": [-96.77242289293379, -65.86786150718171]}}]}